NORAD_CAT_ID,OBJECT_NAME,OBJECT_TYPE,EPOCH,MEAN_MOTION,ECCENTRICITY,INCLINATION,RA_OF_ASC_NODE,ARG_OF_PERICENTER,MEAN_ANOMALY,BSTAR,MEAN_MOTION_DOT,MEAN_MOTION_DDOT,TLE_LINE0,TLE_LINE1,TLE_LINE2,SEMIMAJOR_AXIS,PERIOD,APOGEE,PERIGEE,DECAYED
55648.0,STARLINK-5501,PAYLOAD,2024-02-08 20:22:01,14.98327537,0.0002852,70.0003,300.3262,269.2929,90.7904,5.9847e-05,6.21e-06,0.0,0 STARLINK-5501,1 55648U 23021W   24039.84862304  .00000621  00000-0  59847-4 0  9995,2 55648  70.0003 300.3262 0002852 269.2929  90.7904 14.98327537 54672,6950.201,96.107,574.048,570.083,0.0
55648.0,STARLINK-5501,PAYLOAD,2024-02-08 21:58:09,14.98324247,0.0002774,69.9998,300.157,266.4924,93.5918,0.00011555,1.286e-05,0.0,0 STARLINK-5501,1 55648U 23021W   24039.91538344  .00001286  00000-0  11555-3 0  9998,2 55648  69.9998 300.1570 0002774 266.4924  93.5918 14.98324247 54984,6950.211,96.107,574.004,570.148,0.0
55648.0,STARLINK-5501,PAYLOAD,2024-02-09 02:46:33,14.98332994,0.0002768,69.9997,299.652,267.7196,92.3646,3.5292e-05,3.28e-06,0.0,0 STARLINK-5501,1 55648U 23021W   24040.11566033  .00000328  00000-0  35292-4 0  9999,2 55648  69.9997 299.6520 0002768 267.7196  92.3646 14.98332994 55016,6950.184,96.107,573.972,570.125,0.0
55648.0,STARLINK-5501,PAYLOAD,2024-02-10 02:48:34,14.98328046,0.0002864,69.9996,297.1273,264.7135,95.3697,0.00010024,1.103e-05,0.0,0 STARLINK-5501,1 55648U 23021W   24041.11706237  .00001103  00000-0  10024-3 0  9999,2 55648  69.9996 297.1273 0002864 264.7135  95.3697 14.98328046 54864,6950.199,96.107,574.054,570.073,0.0
55648.0,STARLINK-5501,PAYLOAD,2024-02-10 22:02:11,14.98332165,0.0002818,69.9996,295.1073,266.4567,93.627,4.2559e-06,-4.2e-07,0.0,0 STARLINK-5501,1 55648U 23021W   24041.91818312 -.00000042  00000-0  42559-5 0  9997,2 55648  69.9996 295.1073 0002818 266.4567  93.6270 14.98332165 55289,6950.186,96.107,574.01,570.093,0.0
55648.0,STARLINK-5501,PAYLOAD,2024-02-11 02:50:34,14.98336625,0.0002762,69.9996,294.6024,264.8984,95.186,5.7679e-05,5.95e-06,0.0,0 STARLINK-5501,1 55648U 23021W   24042.11845818  .00000595  00000-0  57679-4 0  9991,2 55648  69.9996 294.6024 0002762 264.8984  95.1860 14.98336625 55010,6950.172,96.107,573.957,570.118,0.0
55648.0,STARLINK-5501,PAYLOAD,2024-02-11 20:28:03,14.9833299,0.0002636,69.9997,292.751,261.8379,98.2481,5.6857e-05,5.86e-06,0.0,0 STARLINK-5501,1 55648U 23021W   24042.85281852  .00000586  00000-0  56857-4 0  9991,2 55648  69.9997 292.7510 0002636 261.8379  98.2481 14.98332990 55424,6950.184,96.107,573.881,570.217,0.0
55648.0,STARLINK-5501,PAYLOAD,2024-02-12 02:52:35,14.9833471,0.0002572,69.9996,292.0774,261.7119,98.3749,7.5727e-05,8.11e-06,0.0,0 STARLINK-5501,1 55648U 23021W   24043.11985603  .00000811  00000-0  75727-4 0  9994,2 55648  69.9996 292.0774 0002572 261.7119  98.3749 14.98334710 55169,6950.178,96.107,573.831,570.256,0.0
55648.0,STARLINK-5501,PAYLOAD,2024-02-12 20:30:07,14.98304647,0.0002506,69.9996,290.2261,253.4361,106.6523,-0.00024866,-3.057e-05,0.0,0 STARLINK-5501,1 55648U 23021W   24043.85425146 -.00003057  00000-0 -24866-3 0  9990,2 55648  69.9996 290.2261 0002506 253.4361 106.6523 14.98304647 55275,6950.271,96.109,573.878,570.395,0.0
55648.0,STARLINK-5501,PAYLOAD,2024-02-12 22:06:15,14.98303517,0.0002554,70.0,290.0583,264.5765,95.5102,-0.00024335,-2.993e-05,0.0,0 STARLINK-5501,1 55648U 23021W   24043.92101345 -.00002993  00000-0 -24335-3 0  9999,2 55648  70.0000 290.0583 0002554 264.5765  95.5102 14.98303517 55581,6950.275,96.109,573.915,570.365,0.0
55648.0,STARLINK-5501,PAYLOAD,2024-02-13 02:54:38,14.98317661,0.0002826,69.9996,289.5527,244.189,115.8978,-9.5543e-05,-1.232e-05,0.0,0 STARLINK-5501,1 55648U 23021W   24044.12128080 -.00001232  00000-0 -95543-4 0  9992,2 55648  69.9996 289.5527 0002826 244.1890 115.8978 14.98317661 55311,6950.231,96.108,574.06,570.132,0.0
55648.0,STARLINK-5501,PAYLOAD,2024-02-13 09:19:10,14.98327728,0.0002781,69.9993,288.8789,261.712,98.3723,-1.6688e-06,-1.13e-06,0.0,0 STARLINK-5501,1 55648U 23021W   24044.38831309 -.00000113  00000-0 -16688-5 0  9996,2 55648  69.9993 288.8789 0002781 261.7120  98.3723 14.98327728 55353,6950.2,96.107,573.998,570.132,0.0
55648.0,STARLINK-5501,PAYLOAD,2024-02-13 22:08:13,14.98338743,0.0002968,69.9983,287.5313,262.6789,97.4033,9.8588e-05,1.084e-05,0.0,0 STARLINK-5501,1 55648U 23021W   24044.92238345  .00001084  00000-0  98588-4 0  9991,2 55648  69.9983 287.5313 0002968 262.6789  97.4033 14.98338743 55734,6950.166,96.106,574.094,569.968,0.0
55648.0,STARLINK-5501,PAYLOAD,2024-02-14 01:20:29,14.98343429,0.0002802,69.9983,287.1939,264.6759,95.4081,0.00016186,1.839e-05,0.0,0 STARLINK-5501,1 55648U 23021W   24045.05589851  .00001839  00000-0  16186-3 0  9998,2 55648  69.9983 287.1939 0002802 264.6759  95.4081 14.98343429 55457,6950.151,96.106,573.964,570.069,0.0
55648.0,STARLINK-5501,PAYLOAD,2024-02-14 09:21:09,14.98343264,0.0003069,69.9981,286.3523,268.1815,91.8993,9.6559e-05,1.06e-05,0.0,0 STARLINK-5501,1 55648U 23021W   24045.38969870  .00001060  00000-0  96559-4 0  9996,2 55648  69.9981 286.3523 0003069 268.1815  91.8993 14.98343264 55801,6950.152,96.106,574.15,569.884,0.0
55648.0,STARLINK-5501,PAYLOAD,2024-02-14 17:21:50,14.98320721,0.0002868,69.9992,285.5126,267.4625,92.6206,0.00040269,4.714e-05,0.0,0 STARLINK-5501,1 55648U 23021W   24045.72350694  .00004714  00000-0  40269-3 0  9997,2 55648  69.9992 285.5126 0002868 267.4625  92.6206 14.98320721 55551,6950.222,96.108,574.08,570.093,0.0
55648.0,STARLINK-5501,PAYLOAD,2024-02-14 22:10:15,14.98324985,0.0002859,69.9992,285.0074,267.1619,92.9213,0.00039785,4.657e-05,0.0,0 STARLINK-5501,1 55648U 23021W   24045.92378505  .00004657  00000-0  39785-3 0  9997,2 55648  69.9992 285.0074 0002859 267.1619  92.9213 14.98324985 55881,6950.208,96.107,574.06,570.086,0.0
55648.0,STARLINK-5501,PAYLOAD,2024-02-15 01:22:31,14.98327333,0.0002915,69.999,284.6708,271.2303,88.8522,0.00038,4.444e-05,0.0,0 STARLINK-5501,1 55648U 23021W   24046.05730431  .00004444  00000-0  38000-3 0  9995,2 55648  69.9990 284.6708 0002915 271.2303  88.8522 14.98327333 55907,6950.201,96.107,574.092,570.04,0.0
55648.0,STARLINK-5501,PAYLOAD,2024-02-15 19:00:00,14.98334169,0.0002852,69.9989,282.8184,269.8837,90.1995,-8.861e-05,-1.15e-05,0.0,0 STARLINK-5501,1 55648U 23021W   24046.79166875 -.00001150  00000-0 -88610-4 0  9997,2 55648  69.9989 282.8184 0002852 269.8837  90.1995 14.98334169 55712,6950.18,96.107,574.027,570.063,0.0
55648.0,STARLINK-5501,PAYLOAD,2024-02-15 22:12:16,14.98332927,0.0002957,69.9989,282.4814,271.0793,89.0027,-5.6972e-05,-7.73e-06,0.0,0 STARLINK-5501,1 55648U 23021W   24046.92518806 -.00000773  00000-0 -56972-4 0  9993,2 55648  69.9989 282.4814 0002957 271.0793  89.0027 14.98332927 56039,6950.184,96.107,574.104,569.994,0.0
55648.0,STARLINK-5501,PAYLOAD,2024-02-16 09:25:12,14.98339884,0.0002637,69.9989,281.3031,277.011,83.0749,-9.4933e-05,-1.226e-05,0.0,0 STARLINK-5501,1 55648U 23021W   24047.39250309 -.00001226  00000-0 -94933-4 0  9999,2 55648  69.9989 281.3031 0002637 277.0110  83.0749 14.98339884 56104,6950.162,96.106,573.86,570.195,0.0
55648.0,STARLINK-5501,PAYLOAD,2024-02-16 19:02:00,14.983287,0.0002819,69.9987,280.2922,269.6374,90.4462,0.00011524,1.282e-05,0.0,0 STARLINK-5501,1 55648U 23021W   24047.79306204  .00001282  00000-0  11524-3 0  9993,2 55648  69.9987 280.2922 0002819 269.6374  90.4462 14.98328700 55861,6950.197,96.107,574.021,570.103,0.0
55648.0,STARLINK-5501,PAYLOAD,2024-02-16 22:14:16,14.98337917,0.000278,69.9987,279.9556,267.2032,92.8809,-3.1632e-05,-4.7e-06,0.0,0 STARLINK-5501,1 55648U 23021W   24047.92657886 -.00000470  00000-0 -31632-4 0  9996,2 55648  69.9987 279.9556 0002780 267.2032  92.8809 14.98337917 56188,6950.168,96.106,573.966,570.101,0.0
55648.0,STARLINK-5501,PAYLOAD,2024-02-17 01:26:32,14.98338736,0.0002776,69.9987,279.6189,269.7128,90.3713,-2.6032e-05,-4.04e-06,0.0,0 STARLINK-5501,1 55648U 23021W   24048.06009760 -.00000404  00000-0 -26032-4 0  9999,2 55648  69.9987 279.6189 0002776 269.7128  90.3713 14.98338736 55901,6950.166,96.106,573.96,570.102,0.0
55648.0,STARLINK-5501,PAYLOAD,2024-02-17 19:04:01,14.98329094,0.000287,69.9982,277.7674,268.8328,91.2502,2.1742e-05,1.66e-06,0.0,0 STARLINK-5501,1 55648U 23021W   24048.79446090  .00000166  00000-0  21742-4 0  9996,2 55648  69.9982 277.7674 0002870 268.8328  91.2502 14.98329094 56017,6950.196,96.107,574.055,570.066,0.0
55648.0,STARLINK-5501,PAYLOAD,2024-02-17 22:16:17,14.9832921,0.000289,69.9981,277.431,269.6167,90.4661,2.0172e-05,1.48e-06,0.0,0 STARLINK-5501,1 55648U 23021W   24048.92798097  .00000148  00000-0  20172-4 0  9994,2 55648  69.9981 277.4310 0002890 269.6167  90.4661 14.98329210 56334,6950.195,96.107,574.069,570.052,0.0
55648.0,STARLINK-5501,PAYLOAD,2024-02-18 07:53:05,14.98331364,0.0002828,69.9981,276.4209,270.552,89.5315,1.4506e-05,8e-07,0.0,0 STARLINK-5501,1 55648U 23021W   24049.32853988  .00000080  00000-0  14506-4 0  9999,2 55648  69.9981 276.4209 0002828 270.5520  89.5315 14.98331364 56399,6950.189,96.107,574.019,570.088,0.0
55648.0,STARLINK-5501,PAYLOAD,2024-02-18 19:06:02,14.98334321,0.000285,69.9978,275.2425,269.7605,90.3227,2.2087e-05,1.71e-06,0.0,0 STARLINK-5501,1 55648U 23021W   24049.79585672  .00000171  00000-0  22087-4 0  9996,2 55648  69.9978 275.2425 0002850 269.7605  90.3227 14.98334321 56164,6950.18,96.107,574.025,570.064,0.0
55648.0,STARLINK-5501,PAYLOAD,2024-02-18 22:18:18,14.98335251,0.0002842,69.9977,274.9058,269.5001,90.5832,2.6406e-05,2.22e-06,0.0,0 STARLINK-5501,1 55648U 23021W   24049.92937561  .00000222  00000-0  26406-4 0  9995,2 55648  69.9977 274.9058 0002842 269.5001  90.5832 14.98335251 56482,6950.177,96.107,574.017,570.066,0.0
55648.0,STARLINK-5501,PAYLOAD,2024-02-19 07:55:06,14.98323693,0.0002892,69.9974,273.8954,266.302,93.7808,8.6673e-05,9.41e-06,0.0,0 STARLINK-5501,1 55648U 23021W   24050.32994069  .00000941  00000-0  86673-4 0  9997,2 55648  69.9974 273.8954 0002892 266.3020  93.7808 14.98323693 56242,6950.212,96.107,574.087,570.067,0.0
